$$SOE
2460161.500000000, A.D. 2023-Aug-05 00:00:00.0000, 2.049750289680877E+07, 6.816562630266706E+08, 6.951579975026250E+07,
2460168.500000000, A.D. 2023-Aug-12 00:00:00.0000, 1.164286001454676E+07, 6.817996681566612E+08, 6.921972803545883E+07,
2460175.500000000, A.D. 2023-Aug-19 00:00:00.0000, 2.786466751122886E+06, 6.818402098812759E+08, 6.891321048542306E+07,
2460182.500000000, A.D. 2023-Aug-26 00:00:00.0000, -6.070343325191789E+06, 6.817778427746048E+08, 6.859628971269503E+07,
2460189.500000000, A.D. 2023-Sep-02 00:00:00.0000, -1.492623538263048E+07, 6.816125415538175E+08, 6.826901041518727E+07,
2460196.500000000, A.D. 2023-Sep-09 00:00:00.0000, -2.377987373124769E+07, 6.813443010140762E+08, 6.793141935515279E+07,
2460203.500000000, A.D. 2023-Sep-16 00:00:00.0000, -3.262992204719414E+07, 6.809731357832223E+08, 6.758356530566129E+07,
2460210.500000000, A.D. 2023-Sep-23 00:00:00.0000, -4.147504299933937E+07, 6.804990801831036E+08, 6.722549894993064E+07,
2460217.500000000, A.D. 2023-Sep-30 00:00:00.0000, -5.031389761753124E+07, 6.799221893885448E+08, 6.685727286210510E+07,
2460224.500000000, A.D. 2023-Oct-07 00:00:00.0000, -5.914514675567068E+07, 6.792425413412634E+08, 6.647894174114150E+07,
2460231.500000000, A.D. 2023-Oct-14 00:00:00.0000, -6.796745360931438E+07, 6.784602361050590E+08, 6.609056253178087E+07,
2460238.500000000, A.D. 2023-Oct-21 00:00:00.0000, -7.677948405925933E+07, 6.775753942650331E+08, 6.569219426768917E+07,
2460245.500000000, A.D. 2023-Oct-28 00:00:00.0000, -8.557990626508789E+07, 6.765881566314815E+08, 6.528389795239437E+07,
2460252.500000000, A.D. 2023-Nov-04 00:00:00.0000, -9.436739075807093E+07, 6.754986844780400E+08, 6.486573652994150E+07,
2460259.500000000, A.D. 2023-Nov-11 00:00:00.0000, -1.031406108554340E+08, 6.743071597138796E+08, 6.443777488016674E+07,
2460266.500000000, A.D. 2023-Nov-18 00:00:00.0000, -1.118982431762369E+08, 6.730137849253658E+08, 6.400007981343046E+07,
2460273.500000000, A.D. 2023-Nov-25 00:00:00.0000, -1.206389681859050E+08, 6.716187833095884E+08, 6.355272006020069E+07,
2460280.500000000, A.D. 2023-Dec-02 00:00:00.0000, -1.293614707411524E+08, 6.701223984885933E+08, 6.309576625220108E+07,
2460287.500000000, A.D. 2023-Dec-09 00:00:00.0000, -1.380644405573741E+08, 6.685248941456032E+08, 6.262929088334459E+07,
2460294.500000000, A.D. 2023-Dec-16 00:00:00.0000, -1.467465723107924E+08, 6.668265534961044E+08, 6.215336822521108E+07,
2460301.500000000, A.D. 2023-Dec-23 00:00:00.0000, -1.554065650266710E+08, 6.650276792816465E+08, 6.166807422130561E+07,
2460308.500000000, A.D. 2023-Dec-30 00:00:00.0000, -1.640431220934211E+08, 6.631285953361156E+08, 6.117348656869900E+07,
2460315.500000000, A.D. 2024-Jan-06 00:00:00.0000, -1.726549536743253E+08, 6.611296473638279E+08, 6.066968495649430E+07,
2460322.500000000, A.D. 2024-Jan-13 00:00:00.0000, -1.812407783437570E+08, 6.590312011219596E+08, 6.015675102216855E+07,
2460329.500000000, A.D. 2024-Jan-20 00:00:00.0000, -1.897993227244729E+08, 6.568336410919850E+08, 5.963476816542852E+07,
2460336.500000000, A.D. 2024-Jan-27 00:00:00.0000, -1.983293211545092E+08, 6.545373702927768E+08, 5.910382145874584E+07,
2460343.500000000, A.D. 2024-Feb-03 00:00:00.0000, -2.068295158116997E+08, 6.521428102868482E+08, 5.856399761610404E+07,
2460350.500000000, A.D. 2024-Feb-10 00:00:00.0000, -2.152986570182371E+08, 6.496504010886425E+08, 5.801538497053534E+07,
2460357.500000000, A.D. 2024-Feb-17 00:00:00.0000, -2.237355035864131E+08, 6.470606009829345E+08, 5.745807344822565E+07,
2460364.500000000, A.D. 2024-Feb-24 00:00:00.0000, -2.321388231694206E+08, 6.443738862683384E+08, 5.689215453699860E+07,
2460371.500000000, A.D. 2024-Mar-02 00:00:00.0000, -2.405073925876563E+08, 6.415907508936257E+08, 5.631772124375725E+07,
2460378.500000000, A.D. 2024-Mar-09 00:00:00.0000, -2.488399979914949E+08, 6.387117059241873E+08, 5.573486802296761E+07,
2460385.500000000, A.D. 2024-Mar-16 00:00:00.0000, -2.571354344650564E+08, 6.357372790360925E+08, 5.514369065602699E+07,
2460392.500000000, A.D. 2024-Mar-23 00:00:00.0000, -2.653925051744495E+08, 6.326680151471013E+08, 5.454428618165201E+07,
2460399.500000000, A.D. 2024-Mar-30 00:00:00.0000, -2.736100223014222E+08, 6.295044781583554E+08, 5.393675308067730E+07,
2460406.500000000, A.D. 2024-Apr-06 00:00:00.0000, -2.817868095058143E+08, 6.262472504391732E+08, 5.332119141655326E+07,
2460413.500000000, A.D. 2024-Apr-13 00:00:00.0000, -2.899217023655280E+08, 6.228969308910304E+08, 5.269770267419088E+07,
2460420.500000000, A.D. 2024-Apr-20 00:00:00.0000, -2.980135477463997E+08, 6.194541342677662E+08, 5.206638960330525E+07,
2460427.500000000, A.D. 2024-Apr-27 00:00:00.0000, -3.060612036188452E+08, 6.159194911911933E+08, 5.142735615959847E+07,
2460434.500000000, A.D. 2024-May-04 00:00:00.0000, -3.140635392330996E+08, 6.122936481590312E+08, 5.078070747831786E+07,
2460441.500000000, A.D. 2024-May-11 00:00:00.0000, -3.220194354145498E+08, 6.085772674436951E+08, 5.012654985013252E+07,
2460448.500000000, A.D. 2024-May-18 00:00:00.0000, -3.299277848970867E+08, 6.047710269040412E+08, 4.946499069374683E+07,
2460455.500000000, A.D. 2024-May-25 00:00:00.0000, -3.377874926696857E+08, 6.008756197035242E+08, 4.879613852261415E+07,
2460462.500000000, A.D. 2024-Jun-01 00:00:00.0000, -3.455974762762870E+08, 5.968917538779478E+08, 4.812010289581940E+07,
2460469.500000000, A.D. 2024-Jun-08 00:00:00.0000, -3.533566658225268E+08, 5.928201517304429E+08, 4.743699432893384E+07,
2460476.500000000, A.D. 2024-Jun-15 00:00:00.0000, -3.610640032897410E+08, 5.886615495993205E+08, 4.674692417303988E+07,
2460483.500000000, A.D. 2024-Jun-22 00:00:00.0000, -3.687184421614557E+08, 5.844166991746255E+08, 4.605000465045843E+07,
2460490.500000000, A.D. 2024-Jun-29 00:00:00.0000, -3.763189494837061E+08, 5.800863685433064E+08, 4.534634909324524E+07,
2460497.500000000, A.D. 2024-Jul-06 00:00:00.0000, -3.838645077135258E+08, 5.756713404919024E+08, 4.463607194010550E+07,
2460504.500000000, A.D. 2024-Jul-13 00:00:00.0000, -3.913541144062462E+08, 5.711724108905092E+08, 4.391928854389203E+07,
2460511.500000000, A.D. 2024-Jul-20 00:00:00.0000, -3.987867817275592E+08, 5.665903883069775E+08, 4.319611506582269E+07,
2460518.500000000, A.D. 2024-Jul-27 00:00:00.0000, -4.061615364464280E+08, 5.619260938922597E+08, 4.246666843822160E+07,
2460525.500000000, A.D. 2024-Aug-03 00:00:00.0000, -4.134774201359911E+08, 5.571803611622869E+08, 4.173106634008774E+07,
2460532.500000000, A.D. 2024-Aug-10 00:00:00.0000, -4.207334894168382E+08, 5.523540356724418E+08, 4.098942716982934E+07,
2460539.500000000, A.D. 2024-Aug-17 00:00:00.0000, -4.279288161954393E+08, 5.474479746070766E+08, 4.024187001245138E+07,
2460546.500000000, A.D. 2024-Aug-24 00:00:00.0000, -4.350624878699018E+08, 5.424630462626107E+08, 3.948851459661660E+07,
2460553.500000000, A.D. 2024-Aug-31 00:00:00.0000, -4.421336073873715E+08, 5.374001293634454E+08, 3.872948122571599E+07,
2460560.500000000, A.D. 2024-Sep-07 00:00:00.0000, -4.491412927874943E+08, 5.322601123376494E+08, 3.796489065950385E+07,
2460567.500000000, A.D. 2024-Sep-14 00:00:00.0000, -4.560846761467183E+08, 5.270438935487741E+08, 3.719486401963398E+07,
2460574.500000000, A.D. 2024-Sep-21 00:00:00.0000, -4.629629039524390E+08, 5.217523828969898E+08, 3.641952293870020E+07,
2460581.500000000, A.D. 2024-Sep-28 00:00:00.0000, -4.697751393943504E+08, 5.163865015625169E+08, 3.563898973355451E+07,
2460588.500000000, A.D. 2024-Oct-05 00:00:00.0000, -4.765205629029024E+08, 5.109471798930216E+08, 3.485338726631910E+07,
2460595.500000000, A.D. 2024-Oct-12 00:00:00.0000, -4.831983712956691E+08, 5.054353564150640E+08, 3.406283876963851E+07,
2460602.500000000, A.D. 2024-Oct-19 00:00:00.0000, -4.898077772829084E+08, 4.998519776993204E+08, 3.326746777460930E+07,
2460609.500000000, A.D. 2024-Oct-26 00:00:00.0000, -4.963480093647012E+08, 4.941979982787530E+08, 3.246739807886386E+07,
2460616.500000000, A.D. 2024-Nov-02 00:00:00.0000, -5.028183118622156E+08, 4.884743804717811E+08, 3.166275371910253E+07,
2460623.500000000, A.D. 2024-Nov-09 00:00:00.0000, -5.092179449863986E+08, 4.826820941315885E+08, 3.085365894095659E+07,
2460630.500000000, A.D. 2024-Nov-16 00:00:00.0000, -5.155461849181154E+08, 4.768221163222877E+08, 3.004023816389468E+07,
2460637.500000000, A.D. 2024-Nov-23 00:00:00.0000, -5.218023238527458E+08, 4.708954308725096E+08, 2.922261593287557E+07,
2460644.500000000, A.D. 2024-Nov-30 00:00:00.0000, -5.279856698008903E+08, 4.649030277641891E+08, 2.840091683425847E+07,
2460651.500000000, A.D. 2024-Dec-07 00:00:00.0000, -5.340955457257532E+08, 4.588459027775217E+08, 2.757526537199420E+07,
2460658.500000000, A.D. 2024-Dec-14 00:00:00.0000, -5.401312887059891E+08, 4.527250586163995E+08, 2.674578596742427E+07,
2460665.500000000, A.D. 2024-Dec-21 00:00:00.0000, -5.460922514428728E+08, 4.465415062741101E+08, 2.591260319411194E+07,
2460672.500000000, A.D. 2024-Dec-28 00:00:00.0000, -5.519778041392084E+08, 4.402962636724675E+08, 2.507584182447833E+07,
2460679.500000000, A.D. 2025-Jan-04 00:00:00.0000, -5.577873341524643E+08, 4.339903539504836E+08, 2.423562664444074E+07,
2460686.500000000, A.D. 2025-Jan-11 00:00:00.0000, -5.635202452436534E+08, 4.276248050624452E+08, 2.339208233899072E+07,
2460693.500000000, A.D. 2025-Jan-18 00:00:00.0000, -5.691759573391806E+08, 4.212006497670001E+08, 2.254533345798534E+07,
2460700.500000000, A.D. 2025-Jan-25 00:00:00.0000, -5.747539065621612E+08, 4.147189255330677E+08, 2.169550440130574E+07,
2460707.500000000, A.D. 2025-Feb-01 00:00:00.0000, -5.802535453436213E+08, 4.081806743326638E+08, 2.084271940380514E+07,
2460714.500000000, A.D. 2025-Feb-08 00:00:00.0000, -5.856743425550863E+08, 4.015869423404710E+08, 1.998710251654398E+07,
2460721.500000000, A.D. 2025-Feb-15 00:00:00.0000, -5.910157836336613E+08, 3.949387795202816E+08, 1.912877758023870E+07,
2460728.500000000, A.D. 2025-Feb-22 00:00:00.0000, -5.962773706002817E+08, 3.882372390344580E+08, 1.826786817675018E+07,
$$EOE